[
    {
        "Altitude(m)": 617710.701051464,
        "Argument of Periapsis(deg)": 0.0,
        "Eccentricity": 0.0,
        "Inclination(deg)": 60.0,
        "Latitude(deg)": -41.10282633828677,
        "Longitude(deg)": -110.03338060022693,
        "Mean Anomaly(deg)": 310.9091000000001,
        "RAAN(deg)": 20.0,
        "Satellite Name": "Test1 107",
        "Satellite Number": 107,
        "Semi-Major Axis(m)": 6980739.136638005,
        "Time(s)": 0
    },
    {
        "Altitude(m)": 617517.9994350501,
        "Argument of Periapsis(deg)": 0.00010418945913296404,
        "Eccentricity": 0.0,
        "Inclination(deg)": 60.0,
        "Latitude(deg)": -40.637033409160175,
        "Longitude(deg)": -109.53658559161552,
        "Mean Anomaly(deg)": 311.5292061454619,
        "RAAN(deg)": 19.99957995086026,
        "Satellite Name": "Test1 107",
        "Satellite Number": 107,
        "Semi-Major Axis(m)": 6980739.136638005,
        "Time(s)": 10
    }
]